ALOS-2                  
1 39766U 14029A   26167.59810663  .00001119  00000+0  15677-3 0  9997
2 39766  97.9226 264.7698 0001631  91.0956 269.0443 14.79469220651498
KAZEOSAT 2              
1 40010U 14033A   26167.62379481 -.00000044  00000+0  75608-6 0  9998
2 40010  97.5400   7.2655 0007938 331.3897  28.6882 14.85467270648879
HODOYOSHI-4             
1 40011U 14033B   26167.63062973  .00000450  00000+0  54393-4 0  9991
2 40011  97.5446 352.4800 0022539 310.5413  49.3841 14.88126449648726
DEIMOS-2                
1 40013U 14033D   26167.64724405  .00000813  00000+0  81977-4 0  9990
2 40013  97.5829  42.1552 0001406  47.8836 312.2504 14.93721958637648
HODOYOSHI-3             
1 40015U 14033F   26167.44401514  .00000871  00000+0  10629-3 0  9992
2 40015  97.6416 330.5144 0032767 359.7598   0.3596 14.85387346647511
SPOT 7                  
1 40053U 14034A   26167.56517611  .00000740  00000+0  16028-3 0  9998
2 40053  98.0633 230.0730 0001222  90.9569 269.1772 14.60959386637048
SKYSAT-B                
1 40072U 14037D   26167.45269698  .00001137  00000+0  13054-3 0  9996
2 40072  98.3839 126.3757 0004217 284.8910  75.1838 14.88026258645856
WORLDVIEW-3 (WV-3)      
1 40115U 14048A   26167.56094107  .00000687  00000+0  86765-4 0  9998
2 40115  97.8567 242.4024 0001035  27.1258 333.0011 14.85021138641811
GAOFEN-2                
1 40118U 14049A   26167.63580709  .00000516  00000+0  73624-4 0  9999
2 40118  98.0114 231.8436 0006074 229.2988 130.7697 14.80898712639158
YAOGAN-21               
1 40143U 14053A   26167.63815047  .00008862  00000+0  34291-3 0  9996
2 40143  97.1470 207.8973 0009900  94.5628 265.6742 15.26372029654879
YAOGAN-22               
1 40275U 14063A   26167.65333071 -.00000057  00000+0 -27541-4 0  9998
2 40275 100.7723 318.9176 0006326 186.4916 173.6114 13.15531127559749
ASNARO                  
1 40298U 14070A   26167.56658300  .00008399  00000+0  39932-3 0  9997
2 40298  97.3454 243.6978 0005426 167.0120 193.1256 15.19429334643911
YAOGAN-24               
1 40310U 14072A   26167.60762829  .00000511  00000+0  81530-4 0  9991
2 40310  98.1488 304.9404 0012520 265.6634  94.3145 14.76221936623631
CBERS 4                 
1 40336U 14079A   26167.61900009  .00000430  00000+0  16407-3 0  9991
2 40336  98.3534 224.4683 0001873  63.8623 296.2756 14.35510115603873
YAOGAN-26               
1 40362U 14088A   26167.61621134  .00015526  00000+0  30542-3 0  9997
2 40362  97.0633 167.8384 0006060  67.5921 292.5971 15.47326542637611
SMAP                    
1 40376U 15003A   26167.60125794  .00000346  00000+0  76015-4 0  9990
2 40376  98.1276 174.7041 0001321  96.7265 263.4087 14.63366203607536
KOMPSAT-3A              
1 40536U 15014A   26167.59792187  .00020180  00000+0  29278-3 0  9990
2 40536  97.6883 158.9170 0056433 176.6211 183.5435 15.53968681621726
SENTINEL-2A             
1 40697U 15028A   26167.58531873  .00000419  00000+0  17649-3 0  9997
2 40697  98.5690 242.4455 0001102  88.0288 272.1021 14.30816350573640
GAOFEN-8                
1 40701U 15030A   26167.63466874  .00016524  00000+0  34076-3 0  9997
2 40701  97.6896   0.9720 0008681 188.2553 171.8554 15.45934446611365
CARBONITE 1 (CBNT-1)    
1 40718U 15032D   26167.64294711  .00001283  00000+0  16164-3 0  9991
2 40718  97.6497 345.7317 0013202 299.9756  60.0147 14.83584869589263
YAOGAN-27               
1 40878U 15040A   26167.57243653 -.00000274  00000+0 -61092-3 0  9999
2 40878 100.1144 153.9817 0007649 212.2218 147.8429 13.16068169517580
GAOFEN-9 01             
1 40894U 15047A   26167.59023487  .00000819  00000+0  10658-3 0  9992
2 40894  97.6275 203.3122 0028362 139.6737 220.6588 14.82882884580101
YAOGAN-28               
1 41026U 15064A   26167.66763131  .00005909  00000+0  22260-3 0  9991
2 41026  97.3078 305.9394 0010561 185.0533 175.0602 15.27415053590604
YAOGAN-29               
1 41038U 15069A   26167.63806766  .00000706  00000+0  93416-4 0  9990
2 41038  98.0022 196.2700 0002646  55.2720 304.8742 14.83085723570543
KENT RIDGE 1            
1 41167U 15077B   26167.63953934  .00003497  00000+0  11237-3 0  9992
2 41167  14.9791 270.0669 0008232 230.7734 129.1857 15.23129675581012
GAOFEN-4                
1 41194U 15083A   26167.65432836 -.00000337  00000+0  00000+0 0  9997
2 41194   0.3558  83.7811 0004369 115.3656  47.0246  1.00268927 38525
JASON-3                 
1 41240U 16002A   26167.61428120 -.00000073  00000+0 -42587-4 0  9997
2 41240  66.0402 127.0394 0008523 272.8386  87.1657 12.87628034487173
SENTINEL-3A             
1 41335U 16011A   26167.58538634  .00000094  00000+0  56879-4 0  9990
2 41335  98.6249 234.9777 0001400 102.4098 257.7239 14.26739852537977
ZIYUAN 3-02 (ZY 3-02)   
1 41556U 16033A   26167.53201797  .00004177  00000+0  18859-3 0  9992
2 41556  97.3837 243.3196 0011203 292.3029  67.7019 15.21476442557881
CARTOSAT-2C             
1 41599U 16040A   26167.59945374  .00003451  00000+0  16711-3 0  9998
2 41599  97.4484 227.5859 0009989 131.7535 228.4555 15.19188228553621
