OBJECT_NAME,OBJECT_ID,EPOCH,MEAN_MOTION,ECCENTRICITY,INCLINATION,RA_OF_ASC_NODE,ARG_OF_PERICENTER,MEAN_ANOMALY,EPHEMERIS_TYPE,CLASSIFICATION_TYPE,NORAD_CAT_ID,ELEMENT_SET_NO,REV_AT_EPOCH,BSTAR,MEAN_MOTION_DOT,MEAN_MOTION_DDOT
ALOS-2,2014-029A,2026-06-16T14:21:16.412832,14.79469220,.00016314,97.9226,264.7698,91.0956,269.0443,0,U,39766,999,65149,.15677089E-3,.1119E-4,0
KAZEOSAT 2,2014-033A,2026-06-16T14:58:15.871584,14.85467270,.00079384,97.5400,7.2655,331.3897,28.6882,0,U,40010,999,64887,.756082E-6,-.44E-6,0
HODOYOSHI-4,2014-033B,2026-06-16T15:08:06.408672,14.88126449,.0022539,97.5446,352.4800,310.5413,49.3841,0,U,40011,999,64872,.5439273E-4,.45E-5,0
DEIMOS-2,2014-033D,2026-06-16T15:32:01.885920,14.93721958,.00014062,97.5829,42.1552,47.8836,312.2504,0,U,40013,999,63764,.8197697E-4,.813E-5,0
HODOYOSHI-3,2014-033F,2026-06-16T10:39:22.908096,14.85387346,.0032767,97.6416,330.5144,359.7598,0.3596,0,U,40015,999,64751,.10629359E-3,.871E-5,0
SPOT 7,2014-034A,2026-06-16T13:33:51.215904,14.60959386,.00012227,98.0633,230.0730,90.9569,269.1772,0,U,40053,999,63704,.16028431E-3,.74E-5,0
SKYSAT-B,2014-037D,2026-06-16T10:51:53.019072,14.88026258,.00042172,98.3839,126.3757,284.8910,75.1838,0,U,40072,999,64585,.13053575E-3,.1137E-4,0
WORLDVIEW-3 (WV-3),2014-048A,2026-06-16T13:27:45.308448,14.85021138,.00010357,97.8567,242.4024,27.1258,333.0011,0,U,40115,999,64181,.86765096E-4,.687E-5,0
GAOFEN-2,2014-049A,2026-06-16T15:15:33.732576,14.80898712,.00060746,98.0114,231.8436,229.2988,130.7697,0,U,40118,999,63915,.73624443E-4,.516E-5,0
YAOGAN-21,2014-053A,2026-06-16T15:18:56.200608,15.26372029,.00099003,97.1470,207.8973,94.5628,265.6742,0,U,40143,999,65487,.34291148E-3,.8862E-4,0
YAOGAN-22,2014-063A,2026-06-16T15:40:47.773344,13.15531127,.00063264,100.7723,318.9176,186.4916,173.6114,0,U,40275,999,55974,-.27541041E-4,-.57E-6,0
ASNARO,2014-070A,2026-06-16T13:35:52.771200,15.19429334,.0005426,97.3454,243.6978,167.0120,193.1256,0,U,40298,999,64391,.39931781E-3,.8399E-4,0
YAOGAN-24,2014-072A,2026-06-16T14:34:59.084256,14.76221936,.00125209,98.1488,304.9404,265.6634,94.3145,0,U,40310,999,62363,.81530142E-4,.511E-5,0
CBERS 4,2014-079A,2026-06-16T14:51:21.607776,14.35510115,.00018737,98.3534,224.4683,63.8623,296.2756,0,U,40336,999,60387,.16407012E-3,.43E-5,0
YAOGAN-26,2014-088A,2026-06-16T14:47:20.659776,15.47326542,.00060609,97.0633,167.8384,67.5921,292.5971,0,U,40362,999,63761,.30542113E-3,.15526E-3,0
SMAP,2015-003A,2026-06-16T14:25:48.686016,14.63366203,.0001321,98.1276,174.7041,96.7265,263.4087,0,U,40376,999,60753,.76014607E-4,.346E-5,0
KOMPSAT-3A,2015-014A,2026-06-16T14:21:00.449568,15.53968681,.00564338,97.6883,158.9170,176.6211,183.5435,0,U,40536,999,62172,.29278477E-3,.2018E-3,0
SENTINEL-2A,2015-028A,2026-06-16T14:02:51.538272,14.30816350,.00011028,98.5690,242.4455,88.0288,272.1021,0,U,40697,999,57364,.17648614E-3,.419E-5,0
GAOFEN-8,2015-030A,2026-06-16T15:13:55.379136,15.45934446,.00086814,97.6896,0.9720,188.2553,171.8554,0,U,40701,999,61136,.34076123E-3,.16524E-3,0
CARBONITE 1 (CBNT-1),2015-032D,2026-06-16T15:25:50.630304,14.83584869,.00132021,97.6497,345.7317,299.9756,60.0147,0,U,40718,999,58926,.1616386E-3,.1283E-4,0
YAOGAN-27,2015-040A,2026-06-16T13:44:18.516192,13.16068169,.00076496,100.1144,153.9817,212.2218,147.8429,0,U,40878,999,51758,-.61092489E-3,-.274E-5,0
GAOFEN-9 01,2015-047A,2026-06-16T14:09:56.292768,14.82882884,.00283624,97.6275,203.3122,139.6737,220.6588,0,U,40894,999,58010,.10658291E-3,.819E-5,0
YAOGAN-28,2015-064A,2026-06-16T16:01:23.345184,15.27415053,.00105617,97.3078,305.9394,185.0533,175.0602,0,U,41026,999,59060,.22259575E-3,.5909E-4,0
YAOGAN-29,2015-069A,2026-06-16T15:18:49.045824,14.83085723,.00026463,98.0022,196.2700,55.2720,304.8742,0,U,41038,999,57054,.93415745E-4,.706E-5,0
KENT RIDGE 1,2015-077B,2026-06-16T15:20:56.198976,15.23129675,.00082329,14.9791,270.0669,230.7734,129.1857,0,U,41167,999,58101,.11237108E-3,.3497E-4,0
GAOFEN-4,2015-083A,2026-06-16T15:42:13.970304,1.00268927,.00043697,0.3558,83.7811,115.3656,47.0246,0,U,41194,999,3852,0,-.337E-5,0
JASON-3,2016-002A,2026-06-16T14:44:33.895680,12.87628034,.00085236,66.0402,127.0394,272.8386,87.1657,0,U,41240,999,48717,-.42586907E-4,-.73E-6,0
SENTINEL-3A,2016-011A,2026-06-16T14:02:57.379776,14.26739852,.00014006,98.6249,234.9777,102.4098,257.7239,0,U,41335,999,53797,.56879315E-4,.94E-6,0
ZIYUAN 3-02 (ZY 3-02),2016-033A,2026-06-16T12:46:06.352608,15.21476442,.00112032,97.3837,243.3196,292.3029,67.7019,0,U,41556,999,55788,.18858559E-3,.4177E-4,0
CARTOSAT-2C,2016-040A,2026-06-16T14:23:12.803136,15.19188228,.00099893,97.4484,227.5859,131.7535,228.4555,0,U,41599,999,55362,.16711008E-3,.3451E-4,0
